*******************************************************************************
Ephemeris / WWW_USER Mon Mar 24 09:22:56 2025 Pasadena, USA      / Horizons    
*******************************************************************************
Target body name: (2017 UW51)                     {source: JPL#9}
Center body name: Earth (399)                     {source: DE441}
Center-site name: Mauna Kea
*******************************************************************************
Start time      : A.D. 2019-Jan-05 04:06:00.0000 UT      
Stop  time      : A.D. 2019-Jan-05 16:47:00.0000 UT      
Step-size       : 1 minutes
*******************************************************************************
Target pole/equ : undefined
Target radii    : undefined                                                    
Center geodetic : 204.5278, 19.8260847, 4.21024   {E-lon(deg),Lat(deg),Alt(km)}
Center cylindric: 204.5278, 6006.35451, 2151.0229 {E-lon(deg),Dxy(km),Dz(km)}
Center pole/equ : ITRF93                          {East-longitude positive}
Center radii    : 6378.137, 6378.137, 6356.752 km {Equator_a, b, pole_c}       
Target primary  : Sun
Vis. interferer : MOON (R_eq= 1737.400) km        {source: DE441}
Rel. light bend : Sun                             {source: DE441}
Rel. lght bnd GM: 1.3271E+11 km^3/s^2                                          
Small-body perts: Yes                             {source: SB441-N16}
Atmos refraction: NO (AIRLESS)
RA format       : HMS
Time format     : CAL 
Calendar mode   : Mixed Julian/Gregorian
RTS-only print  : NO       
EOP file        : eop.250321.p250617                                           
EOP coverage    : DATA-BASED 1962-JAN-20 TO 2025-MAR-21. PREDICTS-> 2025-JUN-16
Units conversion: 1 au= 149597870.700 km, c= 299792.458 km/s, 1 day= 86400.0 s 
Table cut-offs 1: Elevation (-90.0deg=NO ),Airmass (>38.000=NO), Daylight (YES)
Table cut-offs 2: Solar elongation (  0.0,180.0=NO ),Local Hour Angle( 0.0=NO )
Table cut-offs 3: RA/DEC angular rate (     0.0=NO )                           
*******************************************************************************
Initial IAU76/J2000 heliocentric ecliptic osculating elements (au, days, deg.):
  EPOCH=  2458075.5 ! 2017-Nov-18.00 (TDB)         Residual RMS= .20188        
   EC= .977323227404683    QR= 3.132710376610715   TP= 2458155.1551369466      
   OM= 241.7154477774366   W=  216.6888678209022   IN= 144.2025603349357       
  Equivalent ICRF heliocentric cartesian coordinates (au, au/d):
   X= 2.139353138138251E+00  Y= 2.375029509283225E+00  Z= 4.232007070438896E-01
  VX= 5.707101564767909E-03 VY=-6.350221743649190E-03 VZ=-1.041670648532765E-02
Asteroid physical parameters (km, seconds, rotational period in hours):        
   GM= n.a.                RAD= n.a.               ROTPER= n.a.                
   H= 15.3                 G= .150                 B-V= n.a.                   
                           ALBEDO= n.a.            STYP= n.a.                  
*******************************************************************************
 Date__(UT)__HR:MN     R.A._________(ICRF)_________DEC
******************************************************
$$SOE
 2019-Jan-05 04:06 C   21 33 51.216979 -45 40 01.51962
 2019-Jan-05 04:07 C   21 33 51.228569 -45 40 01.31171
 2019-Jan-05 04:08 C   21 33 51.240162 -45 40 01.10379
 2019-Jan-05 04:09 C   21 33 51.251758 -45 40 00.89585
 2019-Jan-05 04:10 C   21 33 51.263356 -45 40 00.68790
 2019-Jan-05 04:11 C   21 33 51.274956 -45 40 00.47994
 2019-Jan-05 04:12 C   21 33 51.286559 -45 40 00.27197
 2019-Jan-05 04:13 C   21 33 51.298164 -45 40 00.06398
 2019-Jan-05 04:14 C   21 33 51.309772 -45 39 59.85598
 2019-Jan-05 04:15 C   21 33 51.321382 -45 39 59.64797
 2019-Jan-05 04:16 C   21 33 51.332995 -45 39 59.43995
 2019-Jan-05 04:17 C   21 33 51.344610 -45 39 59.23191
 2019-Jan-05 04:18 C   21 33 51.356227 -45 39 59.02386
 2019-Jan-05 04:19 C   21 33 51.367848 -45 39 58.81581
 2019-Jan-05 04:20 C   21 33 51.379470 -45 39 58.60773
 2019-Jan-05 04:21 N   21 33 51.391095 -45 39 58.39965
 2019-Jan-05 04:22 N   21 33 51.402723 -45 39 58.19156
 2019-Jan-05 04:23 N   21 33 51.414353 -45 39 57.98345
 2019-Jan-05 04:24 N   21 33 51.425986 -45 39 57.77533
 2019-Jan-05 04:25 N   21 33 51.437622 -45 39 57.56720
 2019-Jan-05 04:26 N   21 33 51.449259 -45 39 57.35906
 2019-Jan-05 04:27 N   21 33 51.460900 -45 39 57.15090
 2019-Jan-05 04:28 N   21 33 51.472543 -45 39 56.94274
 2019-Jan-05 04:29 N   21 33 51.484189 -45 39 56.73456
 2019-Jan-05 04:30 N   21 33 51.495837 -45 39 56.52638
 2019-Jan-05 04:31 N   21 33 51.507488 -45 39 56.31818
 2019-Jan-05 04:32 N   21 33 51.519141 -45 39 56.10997
 2019-Jan-05 04:33 N   21 33 51.530797 -45 39 55.90175
 2019-Jan-05 04:34 N   21 33 51.542456 -45 39 55.69352
 2019-Jan-05 04:35 N   21 33 51.554117 -45 39 55.48528
 2019-Jan-05 04:36 N   21 33 51.565781 -45 39 55.27702
 2019-Jan-05 04:37 N   21 33 51.577447 -45 39 55.06876
 2019-Jan-05 04:38 N   21 33 51.589117 -45 39 54.86049
 2019-Jan-05 04:39 N   21 33 51.600789 -45 39 54.65220
 2019-Jan-05 04:40 N   21 33 51.612463 -45 39 54.44391
 2019-Jan-05 04:41 N   21 33 51.624140 -45 39 54.23560
 2019-Jan-05 04:42 N   21 33 51.635820 -45 39 54.02729
 2019-Jan-05 04:43 N   21 33 51.647503 -45 39 53.81896
 2019-Jan-05 04:44 N   21 33 51.659188 -45 39 53.61063
 2019-Jan-05 04:45 N   21 33 51.670876 -45 39 53.40228
 2019-Jan-05 04:46 N   21 33 51.682567 -45 39 53.19393
 2019-Jan-05 04:47 N   21 33 51.694260 -45 39 52.98556
 2019-Jan-05 04:48 A   21 33 51.705957 -45 39 52.77718
 2019-Jan-05 04:49 A   21 33 51.717655 -45 39 52.56880
 2019-Jan-05 04:50 A   21 33 51.729357 -45 39 52.36041
 2019-Jan-05 04:51 A   21 33 51.741061 -45 39 52.15200
 2019-Jan-05 04:52 A   21 33 51.752769 -45 39 51.94359
 2019-Jan-05 04:53 A   21 33 51.764478 -45 39 51.73516
 2019-Jan-05 04:54 A   21 33 51.776191 -45 39 51.52673
 2019-Jan-05 04:55 A   21 33 51.787906 -45 39 51.31829
 2019-Jan-05 04:56 A   21 33 51.799625 -45 39 51.10984
 2019-Jan-05 04:57 A   21 33 51.811346 -45 39 50.90138
 2019-Jan-05 04:58 A   21 33 51.823069 -45 39 50.69291
 2019-Jan-05 04:59 A   21 33 51.834796 -45 39 50.48443
 2019-Jan-05 05:00 A   21 33 51.846525 -45 39 50.27595
 2019-Jan-05 05:01 A   21 33 51.858258 -45 39 50.06745
 2019-Jan-05 05:02 A   21 33 51.869993 -45 39 49.85895
 2019-Jan-05 05:03 A   21 33 51.881730 -45 39 49.65044
 2019-Jan-05 05:04 A   21 33 51.893471 -45 39 49.44192
 2019-Jan-05 05:05 A   21 33 51.905215 -45 39 49.23339
 2019-Jan-05 05:06 A   21 33 51.916961 -45 39 49.02485
 2019-Jan-05 05:07 A   21 33 51.928710 -45 39 48.81630
 2019-Jan-05 05:08 A   21 33 51.940462 -45 39 48.60775
 2019-Jan-05 05:09 A   21 33 51.952217 -45 39 48.39919
 2019-Jan-05 05:10 A   21 33 51.963975 -45 39 48.19062
 2019-Jan-05 05:11 A   21 33 51.975736 -45 39 47.98204
 2019-Jan-05 05:12 A   21 33 51.987499 -45 39 47.77346
 2019-Jan-05 05:13 A   21 33 51.999266 -45 39 47.56486
 2019-Jan-05 05:14 A   21 33 52.011035 -45 39 47.35626
 2019-Jan-05 05:15     21 33 52.022807 -45 39 47.14766
 2019-Jan-05 05:16     21 33 52.034582 -45 39 46.93904
 2019-Jan-05 05:17     21 33 52.046360 -45 39 46.73042
 2019-Jan-05 05:18     21 33 52.058141 -45 39 46.52179
 2019-Jan-05 05:19     21 33 52.069925 -45 39 46.31315
 2019-Jan-05 05:20     21 33 52.081712 -45 39 46.10451
 2019-Jan-05 05:21     21 33 52.093501 -45 39 45.89585
 2019-Jan-05 05:22     21 33 52.105294 -45 39 45.68720
 2019-Jan-05 05:23     21 33 52.117090 -45 39 45.47853
 2019-Jan-05 05:24     21 33 52.128888 -45 39 45.26986
 2019-Jan-05 05:25     21 33 52.140689 -45 39 45.06118
 2019-Jan-05 05:26     21 33 52.152494 -45 39 44.85250
 2019-Jan-05 05:27     21 33 52.164301 -45 39 44.64381
 2019-Jan-05 05:28     21 33 52.176112 -45 39 44.43511
 2019-Jan-05 05:29     21 33 52.187925 -45 39 44.22640
 2019-Jan-05 05:30     21 33 52.199741 -45 39 44.01769
 2019-Jan-05 05:31     21 33 52.211560 -45 39 43.80898
 2019-Jan-05 05:32     21 33 52.223383 -45 39 43.60025
 2019-Jan-05 05:33     21 33 52.235208 -45 39 43.39153
 2019-Jan-05 05:34     21 33 52.247036 -45 39 43.18279
 2019-Jan-05 05:35     21 33 52.258867 -45 39 42.97405
 2019-Jan-05 05:36     21 33 52.270702 -45 39 42.76531
 2019-Jan-05 05:37     21 33 52.282539 -45 39 42.55656
 2019-Jan-05 05:38     21 33 52.294379 -45 39 42.34780
 2019-Jan-05 05:39     21 33 52.306222 -45 39 42.13904
 2019-Jan-05 05:40     21 33 52.318069 -45 39 41.93027
 2019-Jan-05 05:41     21 33 52.329918 -45 39 41.72150
 2019-Jan-05 05:42     21 33 52.341770 -45 39 41.51272
 2019-Jan-05 05:43     21 33 52.353626 -45 39 41.30394
 2019-Jan-05 05:44     21 33 52.365484 -45 39 41.09515
 2019-Jan-05 05:45     21 33 52.377346 -45 39 40.88636
 2019-Jan-05 05:46     21 33 52.389210 -45 39 40.67756
 2019-Jan-05 05:47     21 33 52.401078 -45 39 40.46876
 2019-Jan-05 05:48     21 33 52.412948 -45 39 40.25995
 2019-Jan-05 05:49     21 33 52.424822 -45 39 40.05114
 2019-Jan-05 05:50  s  21 33 52.436699 -45 39 39.84233
 2019-Jan-05 05:51     21 33 52.448578 -45 39 39.63351
 2019-Jan-05 05:52     21 33 52.460461 -45 39 39.42468
 2019-Jan-05 05:53     21 33 52.472347 -45 39 39.21586
 2019-Jan-05 05:54     21 33 52.484236 -45 39 39.00702
 2019-Jan-05 05:55     21 33 52.496128 -45 39 38.79819
 2019-Jan-05 05:56     21 33 52.508023 -45 39 38.58935
 2019-Jan-05 05:57     21 33 52.519922 -45 39 38.38051
 2019-Jan-05 05:58     21 33 52.531823 -45 39 38.17166
 2019-Jan-05 05:59     21 33 52.543727 -45 39 37.96281
 2019-Jan-05 06:00     21 33 52.555635 -45 39 37.75396
 2019-Jan-05 06:01     21 33 52.567546 -45 39 37.54510
 2019-Jan-05 06:02     21 33 52.579459 -45 39 37.33624
 2019-Jan-05 06:03     21 33 52.591376 -45 39 37.12737
 2019-Jan-05 06:04     21 33 52.603296 -45 39 36.91851
 2019-Jan-05 06:05     21 33 52.615219 -45 39 36.70964
 2019-Jan-05 06:06     21 33 52.627145 -45 39 36.50077
 2019-Jan-05 06:07     21 33 52.639075 -45 39 36.29189
 2019-Jan-05 06:08     21 33 52.651007 -45 39 36.08301
